LEMUR-2-AMANDA-SVANTE   
1 48269U 21034B   26068.77637527  .00030872  00000+0  11134-2 0  9996
2 48269  97.5829 144.8625 0002703 205.4721 154.6385 15.28469003265849
STARLINK-35963          
1 66585U 25268AE  26068.15355270  .00036205  00000+0  13188-2 0  9991
2 66585  43.0027 350.4473 0001415 252.4104 107.6593 15.27578695 17872
